KUIPER-00035            
1 63748U 25088AA  25231.58335648  .00035570  00000+0  46838-2 0  9996
2 63748  51.9001 287.8139 0006124 126.9109 192.8427 14.79799967  5630
KUIPER-00037            
1 63749U 25088AB  25231.58335648  .00036506  00000+0  47947-2 0  9999
2 63749  51.9024 286.7814 0007093  71.3680 241.3774 14.79892674  3673
KUIPER-00038            
1 63750U 25088AC  25231.58335648 -.00988554  00000+0 -53658-1 0  9997
2 63750  51.8829 275.1684 0005355 117.8264 212.0344 15.16960272  2890
KUIPER-00039            
1 64500U 25134A   25231.91668981 -.01619917  00000+0 -53236-1 0  9996
2 64500  51.8695  54.1223 0007438 317.7022 253.6366 15.33982334  9609
KUIPER-00040            
1 64501U 25134B   25231.58335648 -.00061037  00000+0 -44313-2 0  9991
2 64501  51.8857  59.7220 0016356 327.8009 349.4671 15.03489850  4862
KUIPER-00041            
1 64502U 25134C   25231.58335648 -.00057088  00000+0 -47539-2 0  9996
2 64502  51.8865  60.4420 0013953 322.7865 315.7548 14.98286630  5355
KUIPER-00042            
1 64503U 25134D   25231.91668981 -.01119306  00000+0 -66655-1 0  9995
2 64503  51.8801  56.7786 0011599 326.3997  16.6812 15.13526193  9577
KUIPER-00043            
1 64504U 25134E   25231.71289332  .00029736  00000+0  10248-2 0  9995
2 64504  51.8741  55.4666 0008012 321.0225  39.0180 15.29741098  9955
